0 SL-8 DEB
1 21156U 91009T   13282.39128718 -.00000012  00000-0  27270-4 0  1874
2 21156 073.9129 244.5938 0146509 160.2517 008.8076 12.33828260 17967
0 SL-8 DEB
1 21156U 91009T   13286.90644220 -.00000032  00000-0 -13283-3 0  1899
2 21156 073.9137 238.7289 0146438 153.7006 264.1637 12.33828365 18520
0 SL-8 DEB
1 21156U 91009T   13288.93369140 -.00000021  00000-0 -48045-4 0  1904
2 21156 073.9141 236.0959 0146409 150.7663 268.7657 12.33828270 18778
0 SL-8 DEB
1 21156U 91009T   13291.20549892  .00000025  00000-0  31270-3 0  1916
2 21156 073.9143 233.1455 0146381 147.4767 279.6449 12.33827874 19057
0 SL-8 DEB
1 21156U 91009T   13293.33533391  .00000009  00000-0  18722-3 0  1929
2 21156 073.9142 230.3796 0146344 144.3853 019.9151 12.33828151 19317
0 SL-8 DEB
1 21156U 91009T   13295.51442252 -.00000008  00000-0  58381-4 0  1933
2 21156 073.9142 227.5498 0146319 141.2207 338.9634 12.33828315 19586
